GLOBALSTAR M075         
1 37192U 10054E   25132.44228041 -.00000094  00000+0  56876-4 0  9999
2 37192  51.9952 290.3718 0000727 106.5886 271.7561 12.62264645671332
GLOBALSTAR M073         
1 37193U 10054F   25132.63032991 -.00000064  00000+0  22468-3 0  9994
2 37193  52.0048 203.5927 0000329 162.2468 350.0592 12.62271387673341
GLOBALSTAR M083         
1 37739U 11033A   25132.48648431 -.00000104  00000+0  83915-6 0  9995
2 37739  51.9837 152.8093 0000266 126.2102  32.3683 12.62263718642342
GLOBALSTAR M088         
1 37740U 11033B   25132.54181337 -.00000114  00000+0 -59453-4 0  9991
2 37740  51.9745  58.1579 0000614  68.5191 102.8295 12.62265937637893
GLOBALSTAR M091         
1 37741U 11033C   25132.47594028 -.00000087  00000+0  93286-4 0  9999
2 37741  52.0021  21.8529 0000913  92.4007  78.6386 12.62267752638674
GLOBALSTAR M085         
1 37742U 11033D   25132.62587113 -.00000095  00000+0  50485-4 0  9997
2 37742  51.9882 332.4671 0000970 105.2218  87.7619 12.62268322639201
GLOBALSTAR M081         
1 37743U 11033E   25132.53785133 -.00000077  00000+0  14721-3 0  9992
2 37743  51.9974 335.5013 0000763 108.3521 283.7507 12.62263730639346
GLOBALSTAR M089         
1 37744U 11033F   25132.58701509 -.00000106  00000+0 -12254-4 0  9997
2 37744  51.9933 289.5841 0000528 101.4878 335.2939 12.62269749640190
